[
  {
    "pincode": "110001",
    "state": "Delhi",
    "city": "New Delhi"
  },
  {
    "pincode": "400001",
    "state": "Maharashtra",
    "city": "Mumbai"
  },
  {
    "pincode": "700001",
    "state": "West Bengal",
    "city": "Kolkata"
  },
  {
    "pincode": "600001",
    "state": "Tamil Nadu",
    "city": "Chennai"
  },
  {
    "pincode": "500001",
    "state": "Telangana",
    "city": "Hyderabad"
  },
  {
    "pincode": "560001",
    "state": "Karnataka",
    "city": "Bangalore"
  },
  {
    "pincode": "380001",
    "state": "Gujarat",
    "city": "Ahmedabad"
  },
  {
    "pincode": "302001",
    "state": "Rajasthan",
    "city": "Jaipur"
  },
  {
    "pincode": "226001",
    "state": "Uttar Pradesh",
    "city": "Lucknow"
  },
  {
    "pincode": "800001",
    "state": "Bihar",
    "city": "Patna"
  },
  {
    "pincode": "110011",
    "state": "Delhi",
    "city": "Delhi"
  },
  {
    "pincode": "400011",
    "state": "Maharashtra",
    "city": "Mumbai"
  },
  {
    "pincode": "700011",
    "state": "West Bengal",
    "city": "Kolkata"
  },
  {
    "pincode": "600011",
    "state": "Tamil Nadu",
    "city": "Chennai"
  },
  {
    "pincode": "500011",
    "state": "Telangana",
    "city": "Hyderabad"
  },
  {
    "pincode": "560011",
    "state": "Karnataka",
    "city": "Bangalore"
  },
  {
    "pincode": "380011",
    "state": "Gujarat",
    "city": "Ahmedabad"
  },
  {
    "pincode": "302011",
    "state": "Rajasthan",
    "city": "Jaipur"
  },
  {
    "pincode": "226011",
    "state": "Uttar Pradesh",
    "city": "Lucknow"
  },
  {
    "pincode": "800011",
    "state": "Bihar",
    "city": "Patna"
  }
] 